[{"OBJECT_NAME":"STARLINK-3054","OBJECT_ID":"2021-082AP","EPOCH":"2026-03-09T22:20:32.440992","MEAN_MOTION":14.98330582,"ECCENTRICITY":0.00026696,"INCLINATION":69.999,"RA_OF_ASC_NODE":293.8403,"ARG_OF_PERICENTER":269.1801,"MEAN_ANOMALY":90.9052,"EPHEMERIS_TYPE":0,"CLASSIFICATION_TYPE":"U","NORAD_CAT_ID":49167,"ELEMENT_SET_NO":999,"REV_AT_EPOCH":24721,"BSTAR":-2.0115793e-5,"MEAN_MOTION_DOT":-3.33e-6,"MEAN_MOTION_DDOT":0},{"OBJECT_NAME":"FENGYUN 1C DEB","OBJECT_ID":"1999-025CGT","EPOCH":"2026-03-05T04:25:54.279264","MEAN_MOTION":14.0465685,"ECCENTRICITY":0.0439164,"INCLINATION":98.3742,"RA_OF_ASC_NODE":47.1093,"ARG_OF_PERICENTER":284.9374,"MEAN_ANOMALY":70.3578,"EPHEMERIS_TYPE":0,"CLASSIFICATION_TYPE":"U","NORAD_CAT_ID":31805,"ELEMENT_SET_NO":999,"REV_AT_EPOCH":63520,"BSTAR":0.0023074638,"MEAN_MOTION_DOT":8.792e-5,"MEAN_MOTION_DDOT":0}]
